CCSDS_OMM_VERS = 2.0
CREATION_DATE  = 
ORIGINATOR     = 

OBJECT_NAME    = UNKNOWN
OBJECT_ID      = 
CENTER_NAME    = EARTH
REF_FRAME      = TEME
TIME_SYSTEM    = UTC
MEAN_ELEMENT_THEORY = SGP/SGP4

EPOCH          = 2025-11-03T10:24:20.079936
MEAN_MOTION    = 12.96930622
ECCENTRICITY   = .00274233
INCLINATION    = 90.2410
RA_OF_ASC_NODE = 2.2589
ARG_OF_PERICENTER = 239.8798
MEAN_ANOMALY   = 119.9604

EPHEMERIS_TYPE = 0
CLASSIFICATION_TYPE = U
NORAD_CAT_ID   = 270280
ELEMENT_SET_NO = 999
REV_AT_EPOCH   = 26545
BSTAR          = .15994792E-3
MEAN_MOTION_DOT = .53E-6
MEAN_MOTION_DDOT = 0

CCSDS_OMM_VERS = 2.0
CREATION_DATE  = 
ORIGINATOR     = 

OBJECT_NAME    = UNKNOWN
OBJECT_ID      = 
CENTER_NAME    = EARTH
REF_FRAME      = TEME
TIME_SYSTEM    = UTC
MEAN_ELEMENT_THEORY = SGP/SGP4

EPOCH          = 2025-11-02T09:44:33.448416
MEAN_MOTION    = 12.32252710
ECCENTRICITY   = .00738882
INCLINATION    = 82.5008
RA_OF_ASC_NODE = 346.7722
ARG_OF_PERICENTER = 54.2037
MEAN_ANOMALY   = 306.5874

EPHEMERIS_TYPE = 0
CLASSIFICATION_TYPE = U
NORAD_CAT_ID   = 270281
ELEMENT_SET_NO = 999
REV_AT_EPOCH   = 25100
BSTAR          = .15367599E-1
MEAN_MOTION_DOT = .1883E-4
MEAN_MOTION_DDOT = 0

CCSDS_OMM_VERS = 2.0
CREATION_DATE  = 
ORIGINATOR     = 

OBJECT_NAME    = UNKNOWN
OBJECT_ID      = 
CENTER_NAME    = EARTH
REF_FRAME      = TEME
TIME_SYSTEM    = UTC
MEAN_ELEMENT_THEORY = SGP/SGP4

EPOCH          = 2025-11-03T09:33:48.455136
MEAN_MOTION    = 12.25554672
ECCENTRICITY   = .04726269
INCLINATION    = 82.7595
RA_OF_ASC_NODE = 197.1784
ARG_OF_PERICENTER = 121.6667
MEAN_ANOMALY   = 243.1401

EPHEMERIS_TYPE = 0
CLASSIFICATION_TYPE = U
NORAD_CAT_ID   = 270282
ELEMENT_SET_NO = 999
REV_AT_EPOCH   = 25288
BSTAR          = .44229184E-2
MEAN_MOTION_DOT = .719E-5
MEAN_MOTION_DDOT = 0

CCSDS_OMM_VERS = 2.0
CREATION_DATE  = 
ORIGINATOR     = 

OBJECT_NAME    = UNKNOWN
OBJECT_ID      = 
CENTER_NAME    = EARTH
REF_FRAME      = TEME
TIME_SYSTEM    = UTC
MEAN_ELEMENT_THEORY = SGP/SGP4

EPOCH          = 2025-11-02T12:52:19.471872
MEAN_MOTION    = 12.95320858
ECCENTRICITY   = .01407268
INCLINATION    = 82.7162
RA_OF_ASC_NODE = 47.1312
ARG_OF_PERICENTER = 349.9627
MEAN_ANOMALY   = 9.8678

EPHEMERIS_TYPE = 0
CLASSIFICATION_TYPE = U
NORAD_CAT_ID   = 270284
ELEMENT_SET_NO = 999
REV_AT_EPOCH   = 26206
BSTAR          = .49242772E-2
MEAN_MOTION_DOT = .1461E-4
MEAN_MOTION_DDOT = 0

CCSDS_OMM_VERS = 2.0
CREATION_DATE  = 
ORIGINATOR     = 

OBJECT_NAME    = UNKNOWN
OBJECT_ID      = 
CENTER_NAME    = EARTH
REF_FRAME      = TEME
TIME_SYSTEM    = UTC
MEAN_ELEMENT_THEORY = SGP/SGP4

EPOCH          = 2025-10-25T21:10:30.788256
MEAN_MOTION    = 12.95746607
ECCENTRICITY   = .00309811
INCLINATION    = 90.2419
RA_OF_ASC_NODE = 1.0641
ARG_OF_PERICENTER = 27.3353
MEAN_ANOMALY   = 332.9389

EPHEMERIS_TYPE = 0
CLASSIFICATION_TYPE = U
NORAD_CAT_ID   = 270288
ELEMENT_SET_NO = 999
REV_AT_EPOCH   = 26392
BSTAR          = .35691702E-4
MEAN_MOTION_DOT = .18E-6
MEAN_MOTION_DDOT = 0

CCSDS_OMM_VERS = 2.0
CREATION_DATE  = 
ORIGINATOR     = 

OBJECT_NAME    = UNKNOWN
OBJECT_ID      = 
CENTER_NAME    = EARTH
REF_FRAME      = TEME
TIME_SYSTEM    = UTC
MEAN_ELEMENT_THEORY = SGP/SGP4

EPOCH          = 2025-11-02T04:19:02.462304
MEAN_MOTION    = 12.50034322
ECCENTRICITY   = .00231777
INCLINATION    = 73.5974
RA_OF_ASC_NODE = 117.2610
ARG_OF_PERICENTER = 1.8643
MEAN_ANOMALY   = 358.2488

EPHEMERIS_TYPE = 0
CLASSIFICATION_TYPE = U
NORAD_CAT_ID   = 270292
ELEMENT_SET_NO = 999
REV_AT_EPOCH   = 27067
BSTAR          = .20158618E-2
MEAN_MOTION_DOT = .289E-5
MEAN_MOTION_DDOT = 0

CCSDS_OMM_VERS = 2.0
CREATION_DATE  = 
ORIGINATOR     = 

OBJECT_NAME    = UNKNOWN
OBJECT_ID      = 
CENTER_NAME    = EARTH
REF_FRAME      = TEME
TIME_SYSTEM    = UTC
MEAN_ELEMENT_THEORY = SGP/SGP4

EPOCH          = 2025-11-01T03:57:43.382016
MEAN_MOTION    = 14.54375446
ECCENTRICITY   = .00071642
INCLINATION    = 98.6697
RA_OF_ASC_NODE = 103.5777
ARG_OF_PERICENTER = 83.5656
MEAN_ANOMALY   = 276.6355

EPHEMERIS_TYPE = 0
CLASSIFICATION_TYPE = U
NORAD_CAT_ID   = 270293
ELEMENT_SET_NO = 999
REV_AT_EPOCH   = 31371
BSTAR          = .63330595E-3
MEAN_MOTION_DOT = .2644E-4
MEAN_MOTION_DDOT = 0

CCSDS_OMM_VERS = 2.0
CREATION_DATE  = 
ORIGINATOR     = 

OBJECT_NAME    = UNKNOWN
OBJECT_ID      = 
CENTER_NAME    = EARTH
REF_FRAME      = TEME
TIME_SYSTEM    = UTC
MEAN_ELEMENT_THEORY = SGP/SGP4

EPOCH          = 2025-10-27T00:07:04.079712
MEAN_MOTION    = 14.30198655
ECCENTRICITY   = .00749859
INCLINATION    = 99.1604
RA_OF_ASC_NODE = 221.0638
ARG_OF_PERICENTER = 283.6737
MEAN_ANOMALY   = 75.6103

EPHEMERIS_TYPE = 0
CLASSIFICATION_TYPE = U
NORAD_CAT_ID   = 270294
ELEMENT_SET_NO = 999
REV_AT_EPOCH   = 30765
BSTAR          = .67189945E-3
MEAN_MOTION_DOT = .1745E-4
MEAN_MOTION_DDOT = 0

CCSDS_OMM_VERS = 2.0
CREATION_DATE  = 
ORIGINATOR     = 

OBJECT_NAME    = UNKNOWN
OBJECT_ID      = 
CENTER_NAME    = EARTH
REF_FRAME      = TEME
TIME_SYSTEM    = UTC
MEAN_ELEMENT_THEORY = SGP/SGP4

EPOCH          = 2025-11-02T16:05:52.305792
MEAN_MOTION    = 14.69404237
ECCENTRICITY   = .0097914
INCLINATION    = 97.7275
RA_OF_ASC_NODE = 273.8896
ARG_OF_PERICENTER = 200.9841
MEAN_ANOMALY   = 158.7336

EPHEMERIS_TYPE = 0
CLASSIFICATION_TYPE = U
NORAD_CAT_ID   = 270295
ELEMENT_SET_NO = 999
REV_AT_EPOCH   = 8314
BSTAR          = .21198162E-2
MEAN_MOTION_DOT = .13469E-3
MEAN_MOTION_DDOT = 0

CCSDS_OMM_VERS = 2.0
CREATION_DATE  = 
ORIGINATOR     = 

OBJECT_NAME    = UNKNOWN
OBJECT_ID      = 
CENTER_NAME    = EARTH
REF_FRAME      = TEME
TIME_SYSTEM    = UTC
MEAN_ELEMENT_THEORY = SGP/SGP4

EPOCH          = 2025-11-02T20:36:53.974656
MEAN_MOTION    = 12.97974655
ECCENTRICITY   = .00271114
INCLINATION    = 90.2408
RA_OF_ASC_NODE = 1.9962
ARG_OF_PERICENTER = 249.4319
MEAN_ANOMALY   = 110.3893

EPHEMERIS_TYPE = 0
CLASSIFICATION_TYPE = U
NORAD_CAT_ID   = 270296
ELEMENT_SET_NO = 999
REV_AT_EPOCH   = 28017
BSTAR          = .9841135E-3
MEAN_MOTION_DOT = .295E-5
MEAN_MOTION_DDOT = 0

CCSDS_OMM_VERS = 2.0
CREATION_DATE  = 
ORIGINATOR     = 

OBJECT_NAME    = UNKNOWN
OBJECT_ID      = 
CENTER_NAME    = EARTH
REF_FRAME      = TEME
TIME_SYSTEM    = UTC
MEAN_ELEMENT_THEORY = SGP/SGP4

EPOCH          = 2025-10-27T23:20:18.805632
MEAN_MOTION    = 12.99391417
ECCENTRICITY   = .00421308
INCLINATION    = 90.2709
RA_OF_ASC_NODE = 17.6895
ARG_OF_PERICENTER = 188.0473
MEAN_ANOMALY   = 171.9978

EPHEMERIS_TYPE = 0
CLASSIFICATION_TYPE = U
NORAD_CAT_ID   = 270297
ELEMENT_SET_NO = 999
REV_AT_EPOCH   = 27956
BSTAR          = .27793684E-2
MEAN_MOTION_DOT = .84E-5
MEAN_MOTION_DDOT = 0

CCSDS_OMM_VERS = 2.0
CREATION_DATE  = 
ORIGINATOR     = 

OBJECT_NAME    = UNKNOWN
OBJECT_ID      = 
CENTER_NAME    = EARTH
REF_FRAME      = TEME
TIME_SYSTEM    = UTC
MEAN_ELEMENT_THEORY = SGP/SGP4

EPOCH          = 2025-11-02T23:59:28.838112
MEAN_MOTION    = 2.07711977
ECCENTRICITY   = .73616316
INCLINATION    = 60.0814
RA_OF_ASC_NODE = 222.8525
ARG_OF_PERICENTER = 72.9155
MEAN_ANOMALY   = 350.3300

EPHEMERIS_TYPE = 0
CLASSIFICATION_TYPE = U
NORAD_CAT_ID   = 270298
ELEMENT_SET_NO = 999
REV_AT_EPOCH   = 1083
BSTAR          = .1085872E-1
MEAN_MOTION_DOT = .284E-4
MEAN_MOTION_DDOT = 0

CCSDS_OMM_VERS = 2.0
CREATION_DATE  = 
ORIGINATOR     = 

OBJECT_NAME    = UNKNOWN
OBJECT_ID      = 
CENTER_NAME    = EARTH
REF_FRAME      = TEME
TIME_SYSTEM    = UTC
MEAN_ELEMENT_THEORY = SGP/SGP4

EPOCH          = 2025-11-03T10:07:20.381952
MEAN_MOTION    = 12.95860370
ECCENTRICITY   = .00273586
INCLINATION    = 90.2468
RA_OF_ASC_NODE = 6.8927
ARG_OF_PERICENTER = 52.0567
MEAN_ANOMALY   = 308.3019

EPHEMERIS_TYPE = 0
CLASSIFICATION_TYPE = U
NORAD_CAT_ID   = 270299
ELEMENT_SET_NO = 999
REV_AT_EPOCH   = 25860
BSTAR          = .29870978E-3
MEAN_MOTION_DOT = .92E-6
MEAN_MOTION_DDOT = 0

CCSDS_OMM_VERS = 2.0
CREATION_DATE  = 
ORIGINATOR     = 

OBJECT_NAME    = UNKNOWN
OBJECT_ID      = 
CENTER_NAME    = EARTH
REF_FRAME      = TEME
TIME_SYSTEM    = UTC
MEAN_ELEMENT_THEORY = SGP/SGP4

EPOCH          = 2025-10-28T07:23:36.640608
MEAN_MOTION    = 14.50568888
ECCENTRICITY   = .00311785
INCLINATION    = 98.8555
RA_OF_ASC_NODE = 320.4483
ARG_OF_PERICENTER = 12.0041
MEAN_ANOMALY   = 348.1888

EPHEMERIS_TYPE = 0
CLASSIFICATION_TYPE = U
NORAD_CAT_ID   = 270300
ELEMENT_SET_NO = 999
REV_AT_EPOCH   = 7334
BSTAR          = .14826361E-2
MEAN_MOTION_DOT = .5801E-4
MEAN_MOTION_DDOT = 0

CCSDS_OMM_VERS = 2.0
CREATION_DATE  = 
ORIGINATOR     = 

OBJECT_NAME    = UNKNOWN
OBJECT_ID      = 
CENTER_NAME    = EARTH
REF_FRAME      = TEME
TIME_SYSTEM    = UTC
MEAN_ELEMENT_THEORY = SGP/SGP4

EPOCH          = 2025-11-02T06:36:19.484064
MEAN_MOTION    = 14.47362408
ECCENTRICITY   = .00149072
INCLINATION    = 98.9365
RA_OF_ASC_NODE = 321.5344
ARG_OF_PERICENTER = 188.4288
MEAN_ANOMALY   = 171.6654

EPHEMERIS_TYPE = 0
CLASSIFICATION_TYPE = U
NORAD_CAT_ID   = 270302
ELEMENT_SET_NO = 999
REV_AT_EPOCH   = 24084
BSTAR          = .16736583E-2
MEAN_MOTION_DOT = .6097E-4
MEAN_MOTION_DDOT = 0

CCSDS_OMM_VERS = 2.0
CREATION_DATE  = 
ORIGINATOR     = 

OBJECT_NAME    = UNKNOWN
OBJECT_ID      = 
CENTER_NAME    = EARTH
REF_FRAME      = TEME
TIME_SYSTEM    = UTC
MEAN_ELEMENT_THEORY = SGP/SGP4

EPOCH          = 2025-11-02T18:38:52.627200
MEAN_MOTION    = 15.07241808
ECCENTRICITY   = .00120516
INCLINATION    = 98.6253
RA_OF_ASC_NODE = 320.5469
ARG_OF_PERICENTER = 265.4521
MEAN_ANOMALY   = 94.5327

EPHEMERIS_TYPE = 0
CLASSIFICATION_TYPE = U
NORAD_CAT_ID   = 270303
ELEMENT_SET_NO = 999
REV_AT_EPOCH   = 24380
BSTAR          = .5112291E-2
MEAN_MOTION_DOT = .77898E-3
MEAN_MOTION_DDOT = 0

